STARLINK-33703          
1 63418U 25065V   26068.47063811  .00032041  00000+0  11685-2 0  9994
2 63418  42.9979 108.5017 0000280 175.0836 185.0018 15.27589708 52806
KUIPER-00226            
1 67785U 26030X   26068.62629313  .00046834  00000+0  15530-2 0  9998
2 67785  51.8814 220.1252 0017713  64.2781 296.0030 15.30655594  5078
